GOES 18                 
1 51850U 22021A   26062.44905834  .00000082  00000+0  00000+0 0  9997
2 51850   0.0277  75.5670 0000593 317.9827 152.3064  1.00271586  5535
GOES 19                 
1 60133U 24119A   26062.42894124 -.00000263  00000+0  00000+0 0  9990
2 60133   0.0138 313.0575 0000954  63.6038 223.7453  1.00272161  5905
