[{"OBJECT_NAME":"GOES 18","OBJECT_ID":"2022-021A","EPOCH":"2026-03-03T10:46:38.640576","MEAN_MOTION":1.00271586,"ECCENTRICITY":5.93e-5,"INCLINATION":0.0277,"RA_OF_ASC_NODE":75.567,"ARG_OF_PERICENTER":317.9827,"MEAN_ANOMALY":152.3064,"EPHEMERIS_TYPE":0,"CLASSIFICATION_TYPE":"U","NORAD_CAT_ID":51850,"ELEMENT_SET_NO":999,"REV_AT_EPOCH":553,"BSTAR":0,"MEAN_MOTION_DOT":8.2e-7,"MEAN_MOTION_DDOT":0},{"OBJECT_NAME":"GOES 19","OBJECT_ID":"2024-119A","EPOCH":"2026-03-03T10:17:40.523136","MEAN_MOTION":1.00272161,"ECCENTRICITY":9.54e-5,"INCLINATION":0.0138,"RA_OF_ASC_NODE":313.0575,"ARG_OF_PERICENTER":63.6038,"MEAN_ANOMALY":223.7453,"EPHEMERIS_TYPE":0,"CLASSIFICATION_TYPE":"U","NORAD_CAT_ID":60133,"ELEMENT_SET_NO":999,"REV_AT_EPOCH":590,"BSTAR":0,"MEAN_MOTION_DOT":-2.63e-6,"MEAN_MOTION_DDOT":0}]
